TWILIGHT B              
1 67364U 26004B   26031.26252689  .00005132  00000+0  57717-3 0  9990
2 67364  97.7988  32.0769 0007643 218.4435 141.6237 14.87102789  2935
TWILIGHT C              
1 67365U 26004C   26031.26224670  .00005515  00000+0  61951-3 0  9990
2 67365  97.7964  32.0749 0007245 224.2675 135.7962 14.87120044  2930
TWILIGHT D              
1 67366U 26004D   26031.26190531  .00003173  00000+0  35922-3 0  9996
2 67366  97.8021  32.0811 0007788 211.8292 148.2454 14.87108072  2937
TWILIGHT E              
1 67367U 26004E   26031.26075986  .00005148  00000+0  57701-3 0  9996
2 67367  97.7952  32.0755 0006711 226.0668 133.9995 14.87244317  2931
TWILIGHT F              
1 67368U 26004F   26031.26024458  .00004890  00000+0  54799-3 0  9992
2 67368  97.8012  32.0830 0007169 213.5535 146.5228 14.87273410  2931
TWILIGHT G              
1 67369U 26004G   26031.25956056  .00002617  00000+0  29624-3 0  9994
2 67369  97.7945  32.0764 0006136 227.9909 132.0785 14.87259841  2939
TWILIGHT H              
1 67370U 26004H   26031.25876463  .00005224  00000+0  58359-3 0  9993
2 67370  97.7942  32.0769 0005821 227.8325 132.2398 14.87379531  2935
TWILIGHT J              
1 67371U 26004J   26031.25421581  .00005720  00000+0  63218-3 0  9992
2 67371  97.7983  32.0871 0005062 210.2918 149.8007 14.87778606  2933
TWILIGHT K              
1 67372U 26004K   26031.25033434  .00001985  00000+0  22242-3 0  9990
2 67372  97.7964  32.0889 0003402 203.1346 156.9718 14.87956610  2935
TWILIGHT L              
1 67373U 26004L   26031.25551932  .00002266  00000+0  25545-3 0  9991
2 67373  97.7976  32.0845 0004986 216.1357 143.9523 14.87561175  2933
TWILIGHT M              
1 67374U 26004M   26031.25120237  .00002451  00000+0  27356-3 0  9990
2 67374  97.7961  32.0865 0003687 204.2389 155.8655 14.87914626  2931
TWILIGHT N              
1 67375U 26004N   26031.25084787  .00002365  00000+0  26398-3 0  9999
2 67375  97.7998  32.0943 0004265 199.2708 160.8348 14.87941270  2930
