CCSDS_OMM_VERS = 2.0
CREATION_DATE  = 
ORIGINATOR     = 

OBJECT_NAME    = TWILIGHT B
OBJECT_ID      = 2026-004B
CENTER_NAME    = EARTH
REF_FRAME      = TEME
TIME_SYSTEM    = UTC
MEAN_ELEMENT_THEORY = SGP/SGP4

EPOCH          = 2026-01-31T06:18:02.323296
MEAN_MOTION    = 14.87102789
ECCENTRICITY   = .00076439
INCLINATION    = 97.7988
RA_OF_ASC_NODE = 32.0769
ARG_OF_PERICENTER = 218.4435
MEAN_ANOMALY   = 141.6237

EPHEMERIS_TYPE = 0
CLASSIFICATION_TYPE = U
NORAD_CAT_ID   = 67364
ELEMENT_SET_NO = 999
REV_AT_EPOCH   = 293
BSTAR          = .57716909E-3
MEAN_MOTION_DOT = .5132E-4
MEAN_MOTION_DDOT = 0

CCSDS_OMM_VERS = 2.0
CREATION_DATE  = 
ORIGINATOR     = 

OBJECT_NAME    = TWILIGHT C
OBJECT_ID      = 2026-004C
CENTER_NAME    = EARTH
REF_FRAME      = TEME
TIME_SYSTEM    = UTC
MEAN_ELEMENT_THEORY = SGP/SGP4

EPOCH          = 2026-01-31T06:17:38.114880
MEAN_MOTION    = 14.87120044
ECCENTRICITY   = .00072458
INCLINATION    = 97.7964
RA_OF_ASC_NODE = 32.0749
ARG_OF_PERICENTER = 224.2675
MEAN_ANOMALY   = 135.7962

EPHEMERIS_TYPE = 0
CLASSIFICATION_TYPE = U
NORAD_CAT_ID   = 67365
ELEMENT_SET_NO = 999
REV_AT_EPOCH   = 293
BSTAR          = .61951195E-3
MEAN_MOTION_DOT = .5515E-4
MEAN_MOTION_DDOT = 0

CCSDS_OMM_VERS = 2.0
CREATION_DATE  = 
ORIGINATOR     = 

OBJECT_NAME    = TWILIGHT D
OBJECT_ID      = 2026-004D
CENTER_NAME    = EARTH
REF_FRAME      = TEME
TIME_SYSTEM    = UTC
MEAN_ELEMENT_THEORY = SGP/SGP4

EPOCH          = 2026-01-31T06:17:08.618784
MEAN_MOTION    = 14.87108072
ECCENTRICITY   = .00077883
INCLINATION    = 97.8021
RA_OF_ASC_NODE = 32.0811
ARG_OF_PERICENTER = 211.8292
MEAN_ANOMALY   = 148.2454

EPHEMERIS_TYPE = 0
CLASSIFICATION_TYPE = U
NORAD_CAT_ID   = 67366
ELEMENT_SET_NO = 999
REV_AT_EPOCH   = 293
BSTAR          = .35922487E-3
MEAN_MOTION_DOT = .3173E-4
MEAN_MOTION_DDOT = 0

CCSDS_OMM_VERS = 2.0
CREATION_DATE  = 
ORIGINATOR     = 

OBJECT_NAME    = TWILIGHT E
OBJECT_ID      = 2026-004E
CENTER_NAME    = EARTH
REF_FRAME      = TEME
TIME_SYSTEM    = UTC
MEAN_ELEMENT_THEORY = SGP/SGP4

EPOCH          = 2026-01-31T06:15:29.651904
MEAN_MOTION    = 14.87244317
ECCENTRICITY   = .00067111
INCLINATION    = 97.7952
RA_OF_ASC_NODE = 32.0755
ARG_OF_PERICENTER = 226.0668
MEAN_ANOMALY   = 133.9995

EPHEMERIS_TYPE = 0
CLASSIFICATION_TYPE = U
NORAD_CAT_ID   = 67367
ELEMENT_SET_NO = 999
REV_AT_EPOCH   = 293
BSTAR          = .5770099E-3
MEAN_MOTION_DOT = .5148E-4
MEAN_MOTION_DDOT = 0

CCSDS_OMM_VERS = 2.0
CREATION_DATE  = 
ORIGINATOR     = 

OBJECT_NAME    = TWILIGHT F
OBJECT_ID      = 2026-004F
CENTER_NAME    = EARTH
REF_FRAME      = TEME
TIME_SYSTEM    = UTC
MEAN_ELEMENT_THEORY = SGP/SGP4

EPOCH          = 2026-01-31T06:14:45.131712
MEAN_MOTION    = 14.87273410
ECCENTRICITY   = .00071696
INCLINATION    = 97.8012
RA_OF_ASC_NODE = 32.0830
ARG_OF_PERICENTER = 213.5535
MEAN_ANOMALY   = 146.5228

EPHEMERIS_TYPE = 0
CLASSIFICATION_TYPE = U
NORAD_CAT_ID   = 67368
ELEMENT_SET_NO = 999
REV_AT_EPOCH   = 293
BSTAR          = .54799079E-3
MEAN_MOTION_DOT = .489E-4
MEAN_MOTION_DDOT = 0

CCSDS_OMM_VERS = 2.0
CREATION_DATE  = 
ORIGINATOR     = 

OBJECT_NAME    = TWILIGHT G
OBJECT_ID      = 2026-004G
CENTER_NAME    = EARTH
REF_FRAME      = TEME
TIME_SYSTEM    = UTC
MEAN_ELEMENT_THEORY = SGP/SGP4

EPOCH          = 2026-01-31T06:13:46.032384
MEAN_MOTION    = 14.87259841
ECCENTRICITY   = .00061369
INCLINATION    = 97.7945
RA_OF_ASC_NODE = 32.0764
ARG_OF_PERICENTER = 227.9909
MEAN_ANOMALY   = 132.0785

EPHEMERIS_TYPE = 0
CLASSIFICATION_TYPE = U
NORAD_CAT_ID   = 67369
ELEMENT_SET_NO = 999
REV_AT_EPOCH   = 293
BSTAR          = .29624491E-3
MEAN_MOTION_DOT = .2617E-4
MEAN_MOTION_DDOT = 0

CCSDS_OMM_VERS = 2.0
CREATION_DATE  = 
ORIGINATOR     = 

OBJECT_NAME    = TWILIGHT H
OBJECT_ID      = 2026-004H
CENTER_NAME    = EARTH
REF_FRAME      = TEME
TIME_SYSTEM    = UTC
MEAN_ELEMENT_THEORY = SGP/SGP4

EPOCH          = 2026-01-31T06:12:37.264032
MEAN_MOTION    = 14.87379531
ECCENTRICITY   = .00058211
INCLINATION    = 97.7942
RA_OF_ASC_NODE = 32.0769
ARG_OF_PERICENTER = 227.8325
MEAN_ANOMALY   = 132.2398

EPHEMERIS_TYPE = 0
CLASSIFICATION_TYPE = U
NORAD_CAT_ID   = 67370
ELEMENT_SET_NO = 999
REV_AT_EPOCH   = 293
BSTAR          = .58359379E-3
MEAN_MOTION_DOT = .5224E-4
MEAN_MOTION_DDOT = 0

CCSDS_OMM_VERS = 2.0
CREATION_DATE  = 
ORIGINATOR     = 

OBJECT_NAME    = TWILIGHT J
OBJECT_ID      = 2026-004J
CENTER_NAME    = EARTH
REF_FRAME      = TEME
TIME_SYSTEM    = UTC
MEAN_ELEMENT_THEORY = SGP/SGP4

EPOCH          = 2026-01-31T06:06:04.245984
MEAN_MOTION    = 14.87778606
ECCENTRICITY   = .00050625
INCLINATION    = 97.7983
RA_OF_ASC_NODE = 32.0871
ARG_OF_PERICENTER = 210.2918
MEAN_ANOMALY   = 149.8007

EPHEMERIS_TYPE = 0
CLASSIFICATION_TYPE = U
NORAD_CAT_ID   = 67371
ELEMENT_SET_NO = 999
REV_AT_EPOCH   = 293
BSTAR          = .63217563E-3
MEAN_MOTION_DOT = .572E-4
MEAN_MOTION_DDOT = 0

CCSDS_OMM_VERS = 2.0
CREATION_DATE  = 
ORIGINATOR     = 

OBJECT_NAME    = TWILIGHT K
OBJECT_ID      = 2026-004K
CENTER_NAME    = EARTH
REF_FRAME      = TEME
TIME_SYSTEM    = UTC
MEAN_ELEMENT_THEORY = SGP/SGP4

EPOCH          = 2026-01-31T06:00:28.886976
MEAN_MOTION    = 14.87956610
ECCENTRICITY   = .00034029
INCLINATION    = 97.7964
RA_OF_ASC_NODE = 32.0889
ARG_OF_PERICENTER = 203.1346
MEAN_ANOMALY   = 156.9718

EPHEMERIS_TYPE = 0
CLASSIFICATION_TYPE = U
NORAD_CAT_ID   = 67372
ELEMENT_SET_NO = 999
REV_AT_EPOCH   = 293
BSTAR          = .22241972E-3
MEAN_MOTION_DOT = .1985E-4
MEAN_MOTION_DDOT = 0

CCSDS_OMM_VERS = 2.0
CREATION_DATE  = 
ORIGINATOR     = 

OBJECT_NAME    = TWILIGHT L
OBJECT_ID      = 2026-004L
CENTER_NAME    = EARTH
REF_FRAME      = TEME
TIME_SYSTEM    = UTC
MEAN_ELEMENT_THEORY = SGP/SGP4

EPOCH          = 2026-01-31T06:07:56.869248
MEAN_MOTION    = 14.87561175
ECCENTRICITY   = .00049869
INCLINATION    = 97.7976
RA_OF_ASC_NODE = 32.0845
ARG_OF_PERICENTER = 216.1357
MEAN_ANOMALY   = 143.9523

EPHEMERIS_TYPE = 0
CLASSIFICATION_TYPE = U
NORAD_CAT_ID   = 67373
ELEMENT_SET_NO = 999
REV_AT_EPOCH   = 293
BSTAR          = .2554515E-3
MEAN_MOTION_DOT = .2266E-4
MEAN_MOTION_DDOT = 0

CCSDS_OMM_VERS = 2.0
CREATION_DATE  = 
ORIGINATOR     = 

OBJECT_NAME    = TWILIGHT M
OBJECT_ID      = 2026-004M
CENTER_NAME    = EARTH
REF_FRAME      = TEME
TIME_SYSTEM    = UTC
MEAN_ELEMENT_THEORY = SGP/SGP4

EPOCH          = 2026-01-31T06:01:43.884768
MEAN_MOTION    = 14.87914626
ECCENTRICITY   = .00036874
INCLINATION    = 97.7961
RA_OF_ASC_NODE = 32.0865
ARG_OF_PERICENTER = 204.2389
MEAN_ANOMALY   = 155.8655

EPHEMERIS_TYPE = 0
CLASSIFICATION_TYPE = U
NORAD_CAT_ID   = 67374
ELEMENT_SET_NO = 999
REV_AT_EPOCH   = 293
BSTAR          = .27356229E-3
MEAN_MOTION_DOT = .2451E-4
MEAN_MOTION_DDOT = 0

CCSDS_OMM_VERS = 2.0
CREATION_DATE  = 
ORIGINATOR     = 

OBJECT_NAME    = TWILIGHT N
OBJECT_ID      = 2026-004N
CENTER_NAME    = EARTH
REF_FRAME      = TEME
TIME_SYSTEM    = UTC
MEAN_ELEMENT_THEORY = SGP/SGP4

EPOCH          = 2026-01-31T06:01:13.255968
MEAN_MOTION    = 14.87941270
ECCENTRICITY   = .00042652
INCLINATION    = 97.7998
RA_OF_ASC_NODE = 32.0943
ARG_OF_PERICENTER = 199.2708
MEAN_ANOMALY   = 160.8348

EPHEMERIS_TYPE = 0
CLASSIFICATION_TYPE = U
NORAD_CAT_ID   = 67375
ELEMENT_SET_NO = 999
REV_AT_EPOCH   = 293
BSTAR          = .2639839E-3
MEAN_MOTION_DOT = .2365E-4
MEAN_MOTION_DDOT = 0

